{
  "type": "FeatureCollection",
  "features": [
    {
      "type": "Feature",
      "properties": {
        "norad_id": 33901,
        "name": "COSMOS 2251 DEB",
        "group": "cosmos-2251-debris",
        "lat": -4.578554591175929,
        "lon": -131.9167838153091,
        "alt_km": 499.02060726718446,
        "timestamp": "2025-12-13T22:39:30.104106+00:00",
        "meta_object_name": "COSMOS 2251 DEB",
        "meta_object_id": "1993-036DE",
        "meta_epoch": "2025-12-13T06:00:36.495360",
        "meta_mean_motion": 15.16047047,
        "meta_eccentricity": 0.00315702,
        "meta_inclination": 73.774,
        "meta_ra_of_asc_node": 48.2147,
        "meta_arg_of_pericenter": 180.2369,
        "meta_mean_anomaly": 179.8816,
        "meta_ephemeris_type": 0,
        "meta_classification_type": "U",
        "meta_norad_cat_id": 33901,
        "meta_element_set_no": 999,
        "meta_rev_at_epoch": 89521,
        "meta_bstar": 0.0051520399,
        "meta_mean_motion_dot": 0.00101724,
        "meta_mean_motion_ddot": 0,
        "tle_line1": "1 33901U 93036DE  25347.25042240  .00101724  00000+0  51520-2 0  9996",
        "tle_line2": "2 33901  73.7740  48.2147 0031570 180.2369 179.8816 15.16047047895217"
      },
      "geometry": {
        "type": "Point",
        "coordinates": [
          -131.9167838153091,
          -4.578554591175929
        ]
      }
    },
    {
      "type": "Feature",
      "properties": {
        "norad_id": 33905,
        "name": "COSMOS 2251 DEB",
        "group": "cosmos-2251-debris",
        "lat": -73.64644534618444,
        "lon": -125.67714107652439,
        "alt_km": 765.4624881849732,
        "timestamp": "2025-12-13T22:39:30.104116+00:00",
        "meta_object_name": "COSMOS 2251 DEB",
        "meta_object_id": "1993-036DJ",
        "meta_epoch": "2025-12-12T22:04:30.248256",
        "meta_mean_motion": 14.35388029,
        "meta_eccentricity": 0.00588835,
        "meta_inclination": 73.8874,
        "meta_ra_of_asc_node": 316.3112,
        "meta_arg_of_pericenter": 205.7938,
        "meta_mean_anomaly": 175.4675,
        "meta_ephemeris_type": 0,
        "meta_classification_type": "U",
        "meta_norad_cat_id": 33905,
        "meta_element_set_no": 999,
        "meta_rev_at_epoch": 87690,
        "meta_bstar": 0.0010382988,
        "meta_mean_motion_dot": 3.013e-05,
        "meta_mean_motion_ddot": 0,
        "tle_line1": "1 33905U 93036DJ  25346.91979454  .00003013  00000+0  10383-2 0  9992",
        "tle_line2": "2 33905  73.8874 316.3112 0058883 205.7938 175.4675 14.35388029876900"
      },
      "geometry": {
        "type": "Point",
        "coordinates": [
          -125.67714107652439,
          -73.64644534618444
        ]
      }
    },
    {
      "type": "Feature",
      "properties": {
        "norad_id": 33906,
        "name": "COSMOS 2251 DEB",
        "group": "cosmos-2251-debris",
        "lat": -65.10268205532728,
        "lon": 177.28221032438617,
        "alt_km": 712.6805826163309,
        "timestamp": "2025-12-13T22:39:30.104127+00:00",
        "meta_object_name": "COSMOS 2251 DEB",
        "meta_object_id": "1993-036DK",
        "meta_epoch": "2025-12-12T09:49:49.961856",
        "meta_mean_motion": 14.57084166,
        "meta_eccentricity": 0.00366174,
        "meta_inclination": 74.0307,
        "meta_ra_of_asc_node": 322.1011,
        "meta_arg_of_pericenter": 351.5359,
        "meta_mean_anomaly": 133.4843,
        "meta_ephemeris_type": 0,
        "meta_classification_type": "U",
        "meta_norad_cat_id": 33906,
        "meta_element_set_no": 999,
        "meta_rev_at_epoch": 88003,
        "meta_bstar": 0.0031055065,
        "meta_mean_motion_dot": 0.00014117,
        "meta_mean_motion_ddot": 0,
        "tle_line1": "1 33906U 93036DK  25346.40960604  .00014117  00000+0  31055-2 0  9990",
        "tle_line2": "2 33906  74.0307 322.1011 0036617 351.5359 133.4843 14.57084166880035"
      },
      "geometry": {
        "type": "Point",
        "coordinates": [
          177.28221032438617,
          -65.10268205532728
        ]
      }
    },
    {
      "type": "Feature",
      "properties": {
        "norad_id": 33907,
        "name": "COSMOS 2251 DEB",
        "group": "cosmos-2251-debris",
        "lat": 65.41151535228722,
        "lon": 172.84685563434252,
        "alt_km": 708.7804139518366,
        "timestamp": "2025-12-13T22:39:30.104138+00:00",
        "meta_object_name": "COSMOS 2251 DEB",
        "meta_object_id": "1993-036DL",
        "meta_epoch": "2025-12-13T03:58:29.686368",
        "meta_mean_motion": 14.30513073,
        "meta_eccentricity": 0.01120998,
        "meta_inclination": 74.0708,
        "meta_ra_of_asc_node": 32.8776,
        "meta_arg_of_pericenter": 88.2286,
        "meta_mean_anomaly": 332.782,
        "meta_ephemeris_type": 0,
        "meta_classification_type": "U",
        "meta_norad_cat_id": 33907,
        "meta_element_set_no": 999,
        "meta_rev_at_epoch": 86586,
        "meta_bstar": 0.0023514912,
        "meta_mean_motion_dot": 6.543e-05,
        "meta_mean_motion_ddot": 0,
        "tle_line1": "1 33907U 93036DL  25347.16562137  .00006543  00000+0  23515-2 0  9990",
        "tle_line2": "2 33907  74.0708  32.8776 0112099  88.2286 332.7820 14.30513073865864"
      },
      "geometry": {
        "type": "Point",
        "coordinates": [
          172.84685563434252,
          65.41151535228722
        ]
      }
    },
    {
      "type": "Feature",
      "properties": {
        "norad_id": 33908,
        "name": "COSMOS 2251 DEB",
        "group": "cosmos-2251-debris",
        "lat": 36.48597156059169,
        "lon": -143.98582238385748,
        "alt_km": 1025.2656764425728,
        "timestamp": "2025-12-13T22:39:30.104149+00:00",
        "meta_object_name": "COSMOS 2251 DEB",
        "meta_object_id": "1993-036DM",
        "meta_epoch": "2025-12-12T22:35:09.458016",
        "meta_mean_motion": 14.07343043,
        "meta_eccentricity": 0.02231149,
        "meta_inclination": 73.8377,
        "meta_ra_of_asc_node": 205.4085,
        "meta_arg_of_pericenter": 228.9135,
        "meta_mean_anomaly": 129.2545,
        "meta_ephemeris_type": 0,
        "meta_classification_type": "U",
        "meta_norad_cat_id": 33908,
        "meta_element_set_no": 999,
        "meta_rev_at_epoch": 85476,
        "meta_bstar": 0.0027138869,
        "meta_mean_motion_dot": 5.698e-05,
        "meta_mean_motion_ddot": 0,
        "tle_line1": "1 33908U 93036DM  25346.94108169  .00005698  00000+0  27139-2 0  9993",
        "tle_line2": "2 33908  73.8377 205.4085 0223114 228.9135 129.2545 14.07343043854764"
      },
      "geometry": {
        "type": "Point",
        "coordinates": [
          -143.98582238385748,
          36.48597156059169
        ]
      }
    },
    {
      "type": "Feature",
      "properties": {
        "norad_id": 33911,
        "name": "COSMOS 2251 DEB",
        "group": "cosmos-2251-debris",
        "lat": 71.50877928846215,
        "lon": -79.01778156667943,
        "alt_km": 628.1175666401623,
        "timestamp": "2025-12-13T22:39:30.104160+00:00",
        "meta_object_name": "COSMOS 2251 DEB",
        "meta_object_id": "1993-036DQ",
        "meta_epoch": "2025-12-11T11:44:22.098624",
        "meta_mean_motion": 14.74796622,
        "meta_eccentricity": 0.00142629,
        "meta_inclination": 74.0904,
        "meta_ra_of_asc_node": 164.2887,
        "meta_arg_of_pericenter": 105.3404,
        "meta_mean_anomaly": 285.0385,
        "meta_ephemeris_type": 0,
        "meta_classification_type": "U",
        "meta_norad_cat_id": 33911,
        "meta_element_set_no": 999,
        "meta_rev_at_epoch": 88626,
        "meta_bstar": 0.0039923309,
        "meta_mean_motion_dot": 0.00026852,
        "meta_mean_motion_ddot": 0,
        "tle_line1": "1 33911U 93036DQ  25345.48914466  .00026852  00000+0  39923-2 0  9999",
        "tle_line2": "2 33911  74.0904 164.2887 0014262 105.3404 285.0385 14.74796622886260"
      },
      "geometry": {
        "type": "Point",
        "coordinates": [
          -79.01778156667943,
          71.50877928846215
        ]
      }
    },
    {
      "type": "Feature",
      "properties": {
        "norad_id": 33912,
        "name": "COSMOS 2251 DEB",
        "group": "cosmos-2251-debris",
        "lat": -62.00325620141122,
        "lon": 40.03961942496776,
        "alt_km": 718.5955746613272,
        "timestamp": "2025-12-13T22:39:30.104170+00:00",
        "meta_object_name": "COSMOS 2251 DEB",
        "meta_object_id": "1993-036DR",
        "meta_epoch": "2025-12-13T07:27:20.876256",
        "meta_mean_motion": 14.51901288,
        "meta_eccentricity": 0.0011445,
        "meta_inclination": 74.0337,
        "meta_ra_of_asc_node": 188.6495,
        "meta_arg_of_pericenter": 267.6102,
        "meta_mean_anomaly": 269.5349,
        "meta_ephemeris_type": 0,
        "meta_classification_type": "U",
        "meta_norad_cat_id": 33912,
        "meta_element_set_no": 999,
        "meta_rev_at_epoch": 88441,
        "meta_bstar": 0.0011614535,
        "meta_mean_motion_dot": 4.661e-05,
        "meta_mean_motion_ddot": 0,
        "tle_line1": "1 33912U 93036DR  25347.31065829  .00004661  00000+0  11615-2 0  9996",
        "tle_line2": "2 33912  74.0337 188.6495 0011445 267.6102 269.5349 14.51901288884416"
      },
      "geometry": {
        "type": "Point",
        "coordinates": [
          40.03961942496776,
          -62.00325620141122
        ]
      }
    }
  ]
}